CCSDS_OMM_VERS = 2.0
CREATION_DATE  = 
ORIGINATOR     = 

OBJECT_NAME    = SL-8 R/B
OBJECT_ID      = 1985-006B
CENTER_NAME    = EARTH
REF_FRAME      = TEME
TIME_SYSTEM    = UTC
MEAN_ELEMENT_THEORY = SGP/SGP4

EPOCH          = 2026-02-25T01:45:24.010848
MEAN_MOTION    = 14.37775455
ECCENTRICITY   = .0018962
INCLINATION    = 74.0443
RA_OF_ASC_NODE = 284.3657
ARG_OF_PERICENTER = 204.7787
MEAN_ANOMALY   = 263.7728

EPHEMERIS_TYPE = 0
CLASSIFICATION_TYPE = U
NORAD_CAT_ID   = 15483
ELEMENT_SET_NO = 999
REV_AT_EPOCH   = 15221
BSTAR          = .50064E-4
MEAN_MOTION_DOT = .125E-5
MEAN_MOTION_DDOT = 0

CCSDS_OMM_VERS = 2.0
CREATION_DATE  = 
ORIGINATOR     = 

OBJECT_NAME    = SL-12 R/B(2)
OBJECT_ID      = 1985-042D
CENTER_NAME    = EARTH
REF_FRAME      = TEME
TIME_SYSTEM    = UTC
MEAN_ELEMENT_THEORY = SGP/SGP4

EPOCH          = 2026-02-25T03:57:10.823040
MEAN_MOTION    = 14.21978658
ECCENTRICITY   = .0033902
INCLINATION    = 71.1072
RA_OF_ASC_NODE = 114.1922
ARG_OF_PERICENTER = 148.5522
MEAN_ANOMALY   = 232.0938

EPHEMERIS_TYPE = 0
CLASSIFICATION_TYPE = U
NORAD_CAT_ID   = 15772
ELEMENT_SET_NO = 999
REV_AT_EPOCH   = 11261
BSTAR          = .15434E-4
MEAN_MOTION_DOT = -.13E-6
MEAN_MOTION_DDOT = 0

CCSDS_OMM_VERS = 2.0
CREATION_DATE  = 
ORIGINATOR     = 

OBJECT_NAME    = SL-14 R/B
OBJECT_ID      = 1985-069B
CENTER_NAME    = EARTH
REF_FRAME      = TEME
TIME_SYSTEM    = UTC
MEAN_ELEMENT_THEORY = SGP/SGP4

EPOCH          = 2026-02-24T09:59:37.637376
MEAN_MOTION    = 14.86415437
ECCENTRICITY   = .00174404
INCLINATION    = 82.5258
RA_OF_ASC_NODE = 37.4146
ARG_OF_PERICENTER = 233.6285
MEAN_ANOMALY   = 126.3324

EPHEMERIS_TYPE = 0
CLASSIFICATION_TYPE = U
NORAD_CAT_ID   = 15945
ELEMENT_SET_NO = 999
REV_AT_EPOCH   = 17086
BSTAR          = .60956146E-4
MEAN_MOTION_DOT = .563E-5
MEAN_MOTION_DDOT = 0

CCSDS_OMM_VERS = 2.0
CREATION_DATE  = 
ORIGINATOR     = 

OBJECT_NAME    = SL-16 R/B
OBJECT_ID      = 1985-097B
CENTER_NAME    = EARTH
REF_FRAME      = TEME
TIME_SYSTEM    = UTC
MEAN_ELEMENT_THEORY = SGP/SGP4

EPOCH          = 2026-02-24T13:26:50.487648
MEAN_MOTION    = 14.16596795
ECCENTRICITY   = .0009757
INCLINATION    = 71.0036
RA_OF_ASC_NODE = 168.1929
ARG_OF_PERICENTER = 274.6906
MEAN_ANOMALY   = 96.0175

EPHEMERIS_TYPE = 0
CLASSIFICATION_TYPE = U
NORAD_CAT_ID   = 16182
ELEMENT_SET_NO = 999
REV_AT_EPOCH   = 8537
BSTAR          = .16185E-3
MEAN_MOTION_DOT = .275E-5
MEAN_MOTION_DDOT = 0

CCSDS_OMM_VERS = 2.0
CREATION_DATE  = 
ORIGINATOR     = 

OBJECT_NAME    = SL-14 R/B
OBJECT_ID      = 1986-006B
CENTER_NAME    = EARTH
REF_FRAME      = TEME
TIME_SYSTEM    = UTC
MEAN_ELEMENT_THEORY = SGP/SGP4

EPOCH          = 2026-02-25T01:40:43.013856
MEAN_MOTION    = 14.86796005
ECCENTRICITY   = .007551
INCLINATION    = 82.5239
RA_OF_ASC_NODE = 271.6173
ARG_OF_PERICENTER = 315.4113
MEAN_ANOMALY   = 44.1044

EPHEMERIS_TYPE = 0
CLASSIFICATION_TYPE = U
NORAD_CAT_ID   = 16496
ELEMENT_SET_NO = 999
REV_AT_EPOCH   = 14733
BSTAR          = .5264E-4
MEAN_MOTION_DOT = .519E-5
MEAN_MOTION_DDOT = 0

CCSDS_OMM_VERS = 2.0
CREATION_DATE  = 
ORIGINATOR     = 

OBJECT_NAME    = COSMOS 1743
OBJECT_ID      = 1986-034A
CENTER_NAME    = EARTH
REF_FRAME      = TEME
TIME_SYSTEM    = UTC
MEAN_ELEMENT_THEORY = SGP/SGP4

EPOCH          = 2026-02-25T02:50:03.235200
MEAN_MOTION    = 15.57554929
ECCENTRICITY   = .0003205
INCLINATION    = 82.5311
RA_OF_ASC_NODE = 87.0163
ARG_OF_PERICENTER = 2.0680
MEAN_ANOMALY   = 358.0587

EPHEMERIS_TYPE = 0
CLASSIFICATION_TYPE = U
NORAD_CAT_ID   = 16719
ELEMENT_SET_NO = 999
REV_AT_EPOCH   = 17829
BSTAR          = .40566E-3
MEAN_MOTION_DOT = .2998E-3
MEAN_MOTION_DDOT = 0

CCSDS_OMM_VERS = 2.0
CREATION_DATE  = 
ORIGINATOR     = 

OBJECT_NAME    = SL-14 R/B
OBJECT_ID      = 1986-046B
CENTER_NAME    = EARTH
REF_FRAME      = TEME
TIME_SYSTEM    = UTC
MEAN_ELEMENT_THEORY = SGP/SGP4

EPOCH          = 2026-02-25T03:28:07.147488
MEAN_MOTION    = 14.85576267
ECCENTRICITY   = .0021537
INCLINATION    = 82.4790
RA_OF_ASC_NODE = 92.0390
ARG_OF_PERICENTER = 269.4433
MEAN_ANOMALY   = 90.4315

EPHEMERIS_TYPE = 0
CLASSIFICATION_TYPE = U
NORAD_CAT_ID   = 16792
ELEMENT_SET_NO = 999
REV_AT_EPOCH   = 12454
BSTAR          = .40297E-4
MEAN_MOTION_DOT = .374E-5
MEAN_MOTION_DDOT = 0

CCSDS_OMM_VERS = 2.0
CREATION_DATE  = 
ORIGINATOR     = 

OBJECT_NAME    = SL-14 R/B
OBJECT_ID      = 1986-055B
CENTER_NAME    = EARTH
REF_FRAME      = TEME
TIME_SYSTEM    = UTC
MEAN_ELEMENT_THEORY = SGP/SGP4

EPOCH          = 2026-02-25T04:49:03.343296
MEAN_MOTION    = 14.85628999
ECCENTRICITY   = .0019285
INCLINATION    = 82.5225
RA_OF_ASC_NODE = 138.4109
ARG_OF_PERICENTER = 18.1574
MEAN_ANOMALY   = 4.8247

EPHEMERIS_TYPE = 0
CLASSIFICATION_TYPE = U
NORAD_CAT_ID   = 16882
ELEMENT_SET_NO = 999
REV_AT_EPOCH   = 11751
BSTAR          = .4472E-4
MEAN_MOTION_DOT = .413E-5
MEAN_MOTION_DDOT = 0

CCSDS_OMM_VERS = 2.0
CREATION_DATE  = 
ORIGINATOR     = 

OBJECT_NAME    = AJISAI (EGS)
OBJECT_ID      = 1986-061A
CENTER_NAME    = EARTH
REF_FRAME      = TEME
TIME_SYSTEM    = UTC
MEAN_ELEMENT_THEORY = SGP/SGP4

EPOCH          = 2026-02-25T04:39:06.014304
MEAN_MOTION    = 12.44515454
ECCENTRICITY   = .0011237
INCLINATION    = 50.0086
RA_OF_ASC_NODE = 131.7735
ARG_OF_PERICENTER = 254.8165
MEAN_ANOMALY   = 202.3494

EPHEMERIS_TYPE = 0
CLASSIFICATION_TYPE = U
NORAD_CAT_ID   = 16908
ELEMENT_SET_NO = 999
REV_AT_EPOCH   = 46644
BSTAR          = -.4279E-4
MEAN_MOTION_DOT = -.103E-5
MEAN_MOTION_DDOT = 0

CCSDS_OMM_VERS = 2.0
CREATION_DATE  = 
ORIGINATOR     = 

OBJECT_NAME    = COSMOS 1812
OBJECT_ID      = 1987-003A
CENTER_NAME    = EARTH
REF_FRAME      = TEME
TIME_SYSTEM    = UTC
MEAN_ELEMENT_THEORY = SGP/SGP4

EPOCH          = 2026-02-25T05:43:17.376384
MEAN_MOTION    = 16.09433252
ECCENTRICITY   = .0005228
INCLINATION    = 82.4736
RA_OF_ASC_NODE = 209.8870
ARG_OF_PERICENTER = 289.5758
MEAN_ANOMALY   = 70.4960

EPHEMERIS_TYPE = 0
CLASSIFICATION_TYPE = U
NORAD_CAT_ID   = 17295
ELEMENT_SET_NO = 999
REV_AT_EPOCH   = 14247
BSTAR          = .82442E-3
MEAN_MOTION_DOT = .735827E-2
MEAN_MOTION_DDOT = .29034E-3

CCSDS_OMM_VERS = 2.0
CREATION_DATE  = 
ORIGINATOR     = 

OBJECT_NAME    = SL-14 R/B
OBJECT_ID      = 1987-024B
CENTER_NAME    = EARTH
REF_FRAME      = TEME
TIME_SYSTEM    = UTC
MEAN_ELEMENT_THEORY = SGP/SGP4

EPOCH          = 2026-02-25T04:22:48.778464
MEAN_MOTION    = 14.86118590
ECCENTRICITY   = .0016897
INCLINATION    = 82.5264
RA_OF_ASC_NODE = 104.5214
ARG_OF_PERICENTER = 305.0434
MEAN_ANOMALY   = 54.9196

EPHEMERIS_TYPE = 0
CLASSIFICATION_TYPE = U
NORAD_CAT_ID   = 17567
ELEMENT_SET_NO = 999
REV_AT_EPOCH   = 8627
BSTAR          = .38898E-4
MEAN_MOTION_DOT = .366E-5
MEAN_MOTION_DDOT = 0

CCSDS_OMM_VERS = 2.0
CREATION_DATE  = 
ORIGINATOR     = 

OBJECT_NAME    = COSMOS 1833
OBJECT_ID      = 1987-027A
CENTER_NAME    = EARTH
REF_FRAME      = TEME
TIME_SYSTEM    = UTC
MEAN_ELEMENT_THEORY = SGP/SGP4

EPOCH          = 2026-02-25T04:32:04.764192
MEAN_MOTION    = 14.13056925
ECCENTRICITY   = .002475
INCLINATION    = 70.9234
RA_OF_ASC_NODE = 352.2895
ARG_OF_PERICENTER = 231.6436
MEAN_ANOMALY   = 128.2461

EPHEMERIS_TYPE = 0
CLASSIFICATION_TYPE = U
NORAD_CAT_ID   = 17589
ELEMENT_SET_NO = 999
REV_AT_EPOCH   = 855
BSTAR          = -.28315E-4
MEAN_MOTION_DOT = -.101E-5
MEAN_MOTION_DDOT = 0

CCSDS_OMM_VERS = 2.0
CREATION_DATE  = 
ORIGINATOR     = 

OBJECT_NAME    = SL-16 R/B
OBJECT_ID      = 1987-027B
CENTER_NAME    = EARTH
REF_FRAME      = TEME
TIME_SYSTEM    = UTC
MEAN_ELEMENT_THEORY = SGP/SGP4

EPOCH          = 2026-02-25T03:04:40.941696
MEAN_MOTION    = 14.17167113
ECCENTRICITY   = .0004069
INCLINATION    = 71.0032
RA_OF_ASC_NODE = 302.9665
ARG_OF_PERICENTER = 166.9406
MEAN_ANOMALY   = 193.1824

EPHEMERIS_TYPE = 0
CLASSIFICATION_TYPE = U
NORAD_CAT_ID   = 17590
ELEMENT_SET_NO = 999
REV_AT_EPOCH   = 1356
BSTAR          = .43338E-4
MEAN_MOTION_DOT = .39E-6
MEAN_MOTION_DDOT = 0

CCSDS_OMM_VERS = 2.0
CREATION_DATE  = 
ORIGINATOR     = 

OBJECT_NAME    = SL-14 R/B
OBJECT_ID      = 1987-038B
CENTER_NAME    = EARTH
REF_FRAME      = TEME
TIME_SYSTEM    = UTC
MEAN_ELEMENT_THEORY = SGP/SGP4

EPOCH          = 2026-02-25T04:06:17.831808
MEAN_MOTION    = 14.85356208
ECCENTRICITY   = .0018581
INCLINATION    = 82.5024
RA_OF_ASC_NODE = 308.6001
ARG_OF_PERICENTER = 201.8303
MEAN_ANOMALY   = 158.2123

EPHEMERIS_TYPE = 0
CLASSIFICATION_TYPE = U
NORAD_CAT_ID   = 17912
ELEMENT_SET_NO = 999
REV_AT_EPOCH   = 7737
BSTAR          = .42555E-4
MEAN_MOTION_DOT = .391E-5
MEAN_MOTION_DDOT = 0

CCSDS_OMM_VERS = 2.0
CREATION_DATE  = 
ORIGINATOR     = 

OBJECT_NAME    = COSMOS 1844
OBJECT_ID      = 1987-041A
CENTER_NAME    = EARTH
REF_FRAME      = TEME
TIME_SYSTEM    = UTC
MEAN_ELEMENT_THEORY = SGP/SGP4

EPOCH          = 2026-02-25T04:00:00.086688
MEAN_MOTION    = 14.14552566
ECCENTRICITY   = .0029362
INCLINATION    = 70.8987
RA_OF_ASC_NODE = 60.5899
ARG_OF_PERICENTER = 37.2880
MEAN_ANOMALY   = 323.0273

EPHEMERIS_TYPE = 0
CLASSIFICATION_TYPE = U
NORAD_CAT_ID   = 17973
ELEMENT_SET_NO = 999
REV_AT_EPOCH   = 181
BSTAR          = .44548E-4
MEAN_MOTION_DOT = .38E-6
MEAN_MOTION_DDOT = 0

